STARLINK-32364          
1 61622U 24191B   26068.26983961 -.00001087  00000+0 -30011-4 0  9996
2 61622  42.9942 156.7492 0000148 182.0242 178.0609 15.27577082 77475
FLOCK 4G-8              
1 62613U 25009E   26068.72381419  .00013559  00000+0  50438-3 0  9996
2 62613  97.4045 151.2834 0003050 315.2538  44.8455 15.27623414 63721
